{
    "links": {
        "self": "http://www.neowsapp.com/rest/v1/neo/54095180?api_key=iIulBulltgU6a56xZRHN4H3l9WmuAYTsLGpBGhQ2"
    },
    "id": "54095180",
    "neo_reference_id": "54095180",
    "name": "(2020 WY4)",
    "designation": "2020 WY4",
    "nasa_jpl_url": "http://ssd.jpl.nasa.gov/sbdb.cgi?sstr=54095180",
    "absolute_magnitude_h": 28.893,
    "estimated_diameter": {
        "kilometers": {
            "estimated_diameter_min": 0.0044254249,
            "estimated_diameter_max": 0.0098955509
        },
        "meters": {
            "estimated_diameter_min": 4.4254249152,
            "estimated_diameter_max": 9.8955509397
        },
        "miles": {
            "estimated_diameter_min": 0.0027498307,
            "estimated_diameter_max": 0.0061488084
        },
        "feet": {
            "estimated_diameter_min": 14.5191110787,
            "estimated_diameter_max": 32.4657193449
        }
    },
    "is_potentially_hazardous_asteroid": false,
    "close_approach_data": [
        {
            "close_approach_date": "1908-11-14",
            "close_approach_date_full": "1908-Nov-14 16:28",
            "epoch_date_close_approach": -1929079920000,
            "relative_velocity": {
                "kilometers_per_second": "13.5647975046",
                "kilometers_per_hour": "48833.2710166036",
                "miles_per_hour": "30343.0955380668"
            },
            "miss_distance": {
                "astronomical": "0.0906749143",
                "lunar": "35.2725416627",
                "kilometers": "13564774.041712541",
                "miles": "8428759.7427374258"
            },
            "orbiting_body": "Earth"
        },
        {
            "close_approach_date": "2020-11-24",
            "close_approach_date_full": "2020-Nov-24 03:19",
            "epoch_date_close_approach": 1606187940000,
            "relative_velocity": {
                "kilometers_per_second": "16.2132013618",
                "kilometers_per_hour": "58367.5249025027",
                "miles_per_hour": "36267.3101262245"
            },
            "miss_distance": {
                "astronomical": "0.0007462394",
                "lunar": "0.2902871266",
                "kilometers": "111635.824750078",
                "miles": "69367.2848959564"
            },
            "orbiting_body": "Earth"
        },
        {
            "close_approach_date": "2020-11-24",
            "close_approach_date_full": "2020-Nov-24 04:45",
            "epoch_date_close_approach": 1606193100000,
            "relative_velocity": {
                "kilometers_per_second": "15.2742416696",
                "kilometers_per_hour": "54987.2700106745",
                "miles_per_hour": "34166.9511907994"
            },
            "miss_distance": {
                "astronomical": "0.0032723782",
                "lunar": "1.2729551198",
                "kilometers": "489540.808554434",
                "miles": "304186.5531178292"
            },
            "orbiting_body": "Moon"
        },
        {
            "close_approach_date": "2023-06-18",
            "close_approach_date_full": "2023-Jun-18 23:48",
            "epoch_date_close_approach": 1687132080000,
            "relative_velocity": {
                "kilometers_per_second": "27.6870086402",
                "kilometers_per_hour": "99673.2311045893",
                "miles_per_hour": "61933.0696271822"
            },
            "miss_distance": {
                "astronomical": "0.4363854625",
                "lunar": "169.7539449125",
                "kilometers": "65282335.688964875",
                "miles": "40564562.393370275"
            },
            "orbiting_body": "Earth"
        },
        {
            "close_approach_date": "2051-06-28",
            "close_approach_date_full": "2051-Jun-28 12:49",
            "epoch_date_close_approach": 2571569340000,
            "relative_velocity": {
                "kilometers_per_second": "22.319875474",
                "kilometers_per_hour": "80351.5517065278",
                "miles_per_hour": "49927.32944787"
            },
            "miss_distance": {
                "astronomical": "0.2634611815",
                "lunar": "102.4863996035",
                "kilometers": "39413231.580083405",
                "miles": "24490246.476044789"
            },
            "orbiting_body": "Earth"
        }
    ],
    "orbital_data": {
        "orbit_id": "1",
        "orbit_determination_date": "2020-11-26 08:12:03",
        "first_observation_date": "2020-11-25",
        "last_observation_date": "2020-11-26",
        "data_arc_in_days": 1,
        "observations_used": 17,
        "orbit_uncertainty": "8",
        "minimum_orbit_intersection": ".000413418",
        "jupiter_tisserand_invariant": "3.583",
        "epoch_osculation": "2459178.5",
        "eccentricity": ".6055327546603487",
        "semi_major_axis": "1.991913491428437",
        "inclination": "9.788645061727438",
        "ascending_node_longitude": "242.1857245950756",
        "orbital_period": "1026.843212119786",
        "perihelion_distance": ".7857446279186627",
        "perihelion_argument": "117.1733813452086",
        "aphelion_distance": "3.198082354938212",
        "perihelion_time": "2459136.560892897519",
        "mean_anomaly": "14.70339227906577",
        "mean_motion": ".3505890634041648",
        "equinox": "J2000",
        "orbit_class": {
            "orbit_class_type": "APO",
            "orbit_class_description": "Near-Earth asteroid orbits which cross the Earth’s orbit similar to that of 1862 Apollo",
            "orbit_class_range": "a (semi-major axis) > 1.0 AU; q (perihelion) < 1.017 AU"
        }
    },
    "is_sentry_object": false
}